OBJECT_NAME,OBJECT_ID,EPOCH,MEAN_MOTION,ECCENTRICITY,INCLINATION,RA_OF_ASC_NODE,ARG_OF_PERICENTER,MEAN_ANOMALY,EPHEMERIS_TYPE,CLASSIFICATION_TYPE,NORAD_CAT_ID,ELEMENT_SET_NO,REV_AT_EPOCH,BSTAR,MEAN_MOTION_DOT,MEAN_MOTION_DDOT
EYESAT A (AO-27),1993-061C,2026-05-14T15:30:19.466496,14.30932607,.00081554,98.6891,202.0690,191.0662,169.0343,0,U,22825,999,70220,.37005596E-4,.53E-6,0
ITAMSAT (IO-26),1993-061D,2026-05-14T15:15:03.677472,14.31358552,.00090112,98.6839,201.9724,174.8801,185.2476,0,U,22826,999,70251,.37117304E-4,.54E-6,0
RADIO ROSTO (RS15),1994-085A,2026-05-14T20:34:54.549120,11.27583685,.01550134,64.8191,357.1213,9.9828,350.4117,0,U,23439,999,29214,-.10204055E-3,-.46E-6,0
JAS-2 (FO-29),1996-046B,2026-05-14T07:12:40.436928,13.53272399,.03497819,98.5276,347.8080,184.2162,175.6010,0,U,24278,999,46858,.30802624E-4,-.4E-7,0
FORTE,1997-047A,2026-05-14T19:42:37.648512,14.27930513,.00237543,69.9524,89.3838,318.1342,41.7963,0,U,24920,999,49392,.62748787E-4,.98E-6,0
TECHSAT 1B (GO-32),1998-043D,2026-05-14T10:01:47.678016,14.24421520,.00009294,99.0065,126.3269,10.4127,349.7070,0,U,25397,999,44652,.33622337E-4,.31E-6,0
ISS (ZARYA),1998-067A,2026-05-14T15:36:11.376288,15.49215603,.00075141,51.6311,106.1165,58.4526,301.7195,0,U,25544,999,56655,.95926049E-4,.4878E-4,0
IMAGE,2000-017A,2026-05-11T12:21:24.545088,1.68665748,.74599038,94.2002,314.8870,291.9767,8.1989,0,U,26113,999,16088,-.20584314E-1,.8E-7,0
CLUSTER II-FM7 (SAMBA),2000-041A,2026-05-16T21:38:46.937760,0.44878750,.90174919,149.8252,45.4159,262.1600,0.5378,0,U,26410,999,2016,0,.3611E-4,0
CLUSTER II-FM8 (TANGO),2000-045B,2026-05-16T21:31:44.757984,0.44400393,.90227595,150.0886,46.4719,263.0807,0.4723,0,U,26464,999,2015,0,.3719E-4,0
ODIN,2001-007A,2026-05-14T13:56:43.736064,15.66356537,.00026095,97.3926,173.6143,190.2228,169.8980,0,U,26702,999,38412,.73787196E-3,.76819E-3,0
OMNI-M1,2001-026A,2026-05-14T08:09:59.870592,3.92401351,.00153673,44.8431,253.0655,47.7497,312.4013,0,U,26857,999,20424,0,-.16E-6,0
PCSAT (NO-44),2001-043C,2026-05-14T11:50:53.607264,14.31942418,.000627,67.0511,331.4189,263.7844,96.2544,0,U,26931,999,28562,.55852148E-4,.67E-6,0
PROBA-1,2001-049B,2026-05-14T22:43:08.551200,15.07366159,.00536703,97.9615,142.3209,234.4857,125.1358,0,U,26958,999,33861,.7343422E-4,.1074E-4,0
SAUDISAT 1C (SO-50),2002-058C,2026-05-14T10:31:04.692864,14.82972836,.0075653,64.5521,233.3964,268.6325,90.6113,0,U,27607,999,25945,.92492387E-4,.633E-5,0
CORIOLIS,2003-001A,2026-05-14T07:16:54.258528,14.19935244,.0013099,98.7136,141.7049,314.1197,45.8901,0,U,27640,999,20941,.56826933E-4,.77E-6,0
CUTE-1 (CO-55),2003-031E,2026-05-14T11:00:03.231936,14.24313954,.00083148,98.6747,143.4411,285.6526,74.3735,0,U,27844,999,18687,.10823509E-3,.206E-5,0
CUBESAT XI-IV (CO-57),2003-031J,2026-05-14T00:11:52.373184,14.23601767,.00084237,98.6778,142.7365,308.1331,51.9088,0,U,27848,999,18651,.90172089E-4,.162E-5,0
MOZHAETS 4 (RS22),2003-042A,2026-05-14T22:56:25.183392,14.73404934,.00117618,98.3469,318.3784,20.4729,142.7641,0,U,27939,999,21065,.7143049E-4,.409E-5,0
