EYESAT A (AO-27)        
1 22825U 93061C   26134.64605864  .00000053  00000+0  37006-4 0  9990
2 22825  98.6891 202.0690 0008155 191.0662 169.0343 14.30932607702207
ITAMSAT (IO-26)         
1 22826U 93061D   26134.63545923  .00000054  00000+0  37117-4 0  9993
2 22826  98.6839 201.9724 0009011 174.8801 185.2476 14.31358552702515
RADIO ROSTO (RS15)      
1 23439U 94085A   26134.85757580 -.00000046  00000+0 -10204-3 0  9999
2 23439  64.8191 357.1213 0155013   9.9828 350.4117 11.27583685292140
JAS-2 (FO-29)           
1 24278U 96046B   26134.30046802 -.00000004  00000+0  30803-4 0  9999
2 24278  98.5276 347.8080 0349781 184.2162 175.6010 13.53272399468583
FORTE                   
1 24920U 97047A   26134.82126908  .00000098  00000+0  62749-4 0  9994
2 24920  69.9524  89.3838 0023754 318.1342  41.7963 14.27930513493928
TECHSAT 1B (GO-32)      
1 25397U 98043D   26134.41791294  .00000031  00000+0  33622-4 0  9996
2 25397  99.0065 126.3269 0000929  10.4127 349.7070 14.24421520446527
ISS (ZARYA)             
1 25544U 98067A   26134.65013167  .00004878  00000+0  95926-4 0  9996
2 25544  51.6311 106.1165 0007514  58.4526 301.7195 15.49215603566555
IMAGE                   
1 26113U 00017A   26131.51486742  .00000008  00000+0 -20584-1 0  9999
2 26113  94.2002 314.8870 7459903 291.9767   8.1989  1.68665748160880
CLUSTER II-FM7 (SAMBA)  
1 26410U 00041A   26136.90193215  .00003611  00000+0  00000+0 0  9995
2 26410 149.8252  45.4159 9017491 262.1600   0.5378  0.44878750 20167
CLUSTER II-FM8 (TANGO)  
1 26464U 00045B   26136.89704581  .00003719  00000+0  00000+0 0  9999
2 26464 150.0886  46.4719 9022759 263.0807   0.4723  0.44400393 20154
ODIN                    
1 26702U 01007A   26134.58106176  .00076819  00000+0  73787-3 0  9990
2 26702  97.3926 173.6143 0002609 190.2228 169.8980 15.66356537384127
OMNI-M1                 
1 26857U 01026A   26134.34027628 -.00000016  00000+0  00000+0 0  9991
2 26857  44.8431 253.0655 0015367  47.7497 312.4013  3.92401351204244
PCSAT (NO-44)           
1 26931U 01043C   26134.49367601  .00000067  00000+0  55852-4 0  9992
2 26931  67.0511 331.4189 0006270 263.7844  96.2544 14.31942418285621
PROBA-1                 
1 26958U 01049B   26134.94662675  .00001074  00000+0  73434-4 0  9991
2 26958  97.9615 142.3209 0053670 234.4857 125.1358 15.07366159338613
SAUDISAT 1C (SO-50)     
1 27607U 02058C   26134.43824876  .00000633  00000+0  92492-4 0  9996
2 27607  64.5521 233.3964 0075653 268.6325  90.6113 14.82972836259450
CORIOLIS                
1 27640U 03001A   26134.30340577  .00000077  00000+0  56827-4 0  9993
2 27640  98.7136 141.7049 0013099 314.1197  45.8901 14.19935244209414
CUTE-1 (CO-55)          
1 27844U 03031E   26134.45837074  .00000206  00000+0  10824-3 0  9991
2 27844  98.6747 143.4411 0008314 285.6526  74.3735 14.24313954186871
CUBESAT XI-IV (CO-57)   
1 27848U 03031J   26134.00824506  .00000162  00000+0  90172-4 0  9998
2 27848  98.6778 142.7365 0008423 308.1331  51.9088 14.23601767186519
MOZHAETS 4 (RS22)       
1 27939U 03042A   26134.95584703  .00000409  00000+0  71430-4 0  9997
2 27939  98.3469 318.3784 0011761  20.4729 142.7641 14.73404934210653
